{
    "links": {
        "self": "http://www.neowsapp.com/rest/v1/neo/3765006?api_key=iIulBulltgU6a56xZRHN4H3l9WmuAYTsLGpBGhQ2"
    },
    "id": "3765006",
    "neo_reference_id": "3765006",
    "name": "(2016 XB)",
    "designation": "2016 XB",
    "nasa_jpl_url": "http://ssd.jpl.nasa.gov/sbdb.cgi?sstr=3765006",
    "absolute_magnitude_h": 26.7,
    "estimated_diameter": {
        "kilometers": {
            "estimated_diameter_min": 0.0121494041,
            "estimated_diameter_max": 0.0271668934
        },
        "meters": {
            "estimated_diameter_min": 12.14940408,
            "estimated_diameter_max": 27.1668934089
        },
        "miles": {
            "estimated_diameter_min": 0.0075492874,
            "estimated_diameter_max": 0.0168807197
        },
        "feet": {
            "estimated_diameter_min": 39.8602508817,
            "estimated_diameter_max": 89.1302305717
        }
    },
    "is_potentially_hazardous_asteroid": false,
    "close_approach_data": [
        {
            "close_approach_date": "2016-12-03",
            "close_approach_date_full": "2016-Dec-03 21:10",
            "epoch_date_close_approach": 1480799400000,
            "relative_velocity": {
                "kilometers_per_second": "7.6847887285",
                "kilometers_per_hour": "27665.239422551",
                "miles_per_hour": "17190.1039067512"
            },
            "miss_distance": {
                "astronomical": "0.0345569468",
                "lunar": "13.4426523052",
                "kilometers": "5169645.634983316",
                "miles": "3212268.8426931208"
            },
            "orbiting_body": "Earth"
        },
        {
            "close_approach_date": "2105-01-31",
            "close_approach_date_full": "2105-Jan-31 08:25",
            "epoch_date_close_approach": 4262833500000,
            "relative_velocity": {
                "kilometers_per_second": "17.7013638319",
                "kilometers_per_hour": "63724.9097949858",
                "miles_per_hour": "39596.1807556677"
            },
            "miss_distance": {
                "astronomical": "0.3727054821",
                "lunar": "144.9824325369",
                "kilometers": "55755946.259483127",
                "miles": "34645138.4892240726"
            },
            "orbiting_body": "Earth"
        }
    ],
    "orbital_data": {
        "orbit_id": "2",
        "orbit_determination_date": "2017-04-06 08:21:42",
        "first_observation_date": "2016-12-01",
        "last_observation_date": "2016-12-02",
        "data_arc_in_days": 1,
        "observations_used": 26,
        "orbit_uncertainty": "8",
        "minimum_orbit_intersection": ".0309047",
        "jupiter_tisserand_invariant": "3.224",
        "epoch_osculation": "2457724.5",
        "eccentricity": ".5889601651173666",
        "semi_major_axis": "2.460158430331035",
        "inclination": "3.822450934270955",
        "ascending_node_longitude": "66.73418157872629",
        "orbital_period": "1409.428472724059",
        "perihelion_distance": "1.011223114988387",
        "perihelion_argument": "16.57819811701241",
        "aphelion_distance": "3.909093745673682",
        "perihelion_time": "2457735.254735273186",
        "mean_anomaly": "357.2529966768275",
        "mean_motion": ".2554226815811472",
        "equinox": "J2000",
        "orbit_class": {
            "orbit_class_type": "APO",
            "orbit_class_description": "Near-Earth asteroid orbits which cross the Earth’s orbit similar to that of 1862 Apollo",
            "orbit_class_range": "a (semi-major axis) > 1.0 AU; q (perihelion) < 1.017 AU"
        }
    },
    "is_sentry_object": false
}